CCSDS_OMM_VERS = 2.0
CREATION_DATE  = 
ORIGINATOR     = 

OBJECT_NAME    = SZ-21 DEB
OBJECT_ID      = 2025-246C
CENTER_NAME    = EARTH
REF_FRAME      = TEME
TIME_SYSTEM    = UTC
MEAN_ELEMENT_THEORY = SGP/SGP4

EPOCH          = 2025-11-19T06:16:10.585632
MEAN_MOTION    = 15.60954856
ECCENTRICITY   = .0004573
INCLINATION    = 41.4750
RA_OF_ASC_NODE = 159.1000
ARG_OF_PERICENTER = 90.1162
MEAN_ANOMALY   = 270.0201

EPHEMERIS_TYPE = 0
CLASSIFICATION_TYPE = U
NORAD_CAT_ID   = 66515
ELEMENT_SET_NO = 999
REV_AT_EPOCH   = 77
BSTAR          = .30172516E-3
MEAN_MOTION_DOT = .25787E-3
MEAN_MOTION_DDOT = 0

