SZ-21 DEB               
1 66515U 25246C   25323.26123363  .00025787  00000+0  30173-3 0  9998
2 66515  41.4750 159.1000 0004573  90.1162 270.0201 15.60954856   775
